ATLAS CENTAUR 2         
1 00694U 63047A   26090.24797180  .00003302  00000+0  38991-3 0  9994
2 00694  30.3579  75.1540 0547388 270.2950  83.4969 14.12157792134679
THOR AGENA D R/B        
1 00733U 64002A   26090.29141530  .00000267  00000+0  11248-3 0  9990
2 00733  99.1213 104.8059 0032686 193.8993 166.1293 14.34031690241392
SL-3 R/B                
1 00877U 64053B   26089.83794540  .00000277  00000+0  77778-4 0  9990
2 00877  65.0756 269.2322 0080479 285.5721  73.6506 14.61382797269885
SL-8 R/B                
1 02802U 67045B   26090.02753628  .00000359  00000+0  10698-3 0  9997
2 02802  74.0108 308.2405 0064945 309.7937  49.7512 14.45639307 92104
SL-8 R/B                
1 03230U 68040B   26089.93836949  .00004414  00000+0  32558-3 0  9990
2 03230  74.0290 270.2686 0023290  85.5331 274.8518 15.03403721 93209
OAO 2                   
1 03597U 68110A   26090.23812335  .00000327  00000+0  93152-4 0  9999
2 03597  34.9923 144.9092 0005523   4.4736 355.6004 14.47320169 22222
ISIS 1                  
1 03669U 69009A   26090.22543421  .00000172  00000+0  10976-3 0  9993
2 03669  88.4501 152.9579 1707827  45.7199 327.1837 11.30419730350960
SERT 2                  
1 04327U 70009A   26090.29526923  .00000003  00000+0  60002-4 0  9991
2 04327  99.2788  32.2098 0005686 106.1629  58.8508 13.58731852782829
SL-3 R/B                
1 05118U 71028B   26090.24396722  .00049275  00000+0  53639-3 0  9990
2 05118  81.2376  25.3720 0014823 196.5768 163.5004 15.63082789992034
ASTEX 1                 
1 05560U 71089A   26090.20391041  .00000608  00000+0  15457-3 0  9996
2 05560  92.7088 158.7129 0016114  20.4957 339.6892 14.50791794865427
SL-8 R/B                
1 05730U 71119B   26090.22299586  .00008634  00000+0  45173-3 0  9997
2 05730  73.8855 135.4581 0546297  97.5277 268.8256 14.38267814658583
OAO 3 (COPERNICUS)      
1 06153U 72065A   26090.27340116  .00000447  00000+0  95969-4 0  9992
2 06153  35.0047 174.3409 0006958 332.7140  65.5390 14.60015460849356
