CCSDS_OMM_VERS = 2.0
CREATION_DATE  = 
ORIGINATOR     = 

OBJECT_NAME    = ATLAS CENTAUR 2
OBJECT_ID      = 1963-047A
CENTER_NAME    = EARTH
REF_FRAME      = TEME
TIME_SYSTEM    = UTC
MEAN_ELEMENT_THEORY = SGP/SGP4

EPOCH          = 2026-03-31T05:57:04.763520
MEAN_MOTION    = 14.12157792
ECCENTRICITY   = .05473883
INCLINATION    = 30.3579
RA_OF_ASC_NODE = 75.1540
ARG_OF_PERICENTER = 270.2950
MEAN_ANOMALY   = 83.4969

EPHEMERIS_TYPE = 0
CLASSIFICATION_TYPE = U
NORAD_CAT_ID   = 694
ELEMENT_SET_NO = 999
REV_AT_EPOCH   = 13467
BSTAR          = .38990687E-3
MEAN_MOTION_DOT = .3302E-4
MEAN_MOTION_DDOT = 0

CCSDS_OMM_VERS = 2.0
CREATION_DATE  = 
ORIGINATOR     = 

OBJECT_NAME    = THOR AGENA D R/B
OBJECT_ID      = 1964-002A
CENTER_NAME    = EARTH
REF_FRAME      = TEME
TIME_SYSTEM    = UTC
MEAN_ELEMENT_THEORY = SGP/SGP4

EPOCH          = 2026-03-31T06:59:38.281920
MEAN_MOTION    = 14.34031690
ECCENTRICITY   = .00326863
INCLINATION    = 99.1213
RA_OF_ASC_NODE = 104.8059
ARG_OF_PERICENTER = 193.8993
MEAN_ANOMALY   = 166.1293

EPHEMERIS_TYPE = 0
CLASSIFICATION_TYPE = U
NORAD_CAT_ID   = 733
ELEMENT_SET_NO = 999
REV_AT_EPOCH   = 24139
BSTAR          = .11247561E-3
MEAN_MOTION_DOT = .267E-5
MEAN_MOTION_DDOT = 0

CCSDS_OMM_VERS = 2.0
CREATION_DATE  = 
ORIGINATOR     = 

OBJECT_NAME    = SL-3 R/B
OBJECT_ID      = 1964-053B
CENTER_NAME    = EARTH
REF_FRAME      = TEME
TIME_SYSTEM    = UTC
MEAN_ELEMENT_THEORY = SGP/SGP4

EPOCH          = 2026-03-30T20:06:38.482560
MEAN_MOTION    = 14.61382797
ECCENTRICITY   = .00804794
INCLINATION    = 65.0756
RA_OF_ASC_NODE = 269.2322
ARG_OF_PERICENTER = 285.5721
MEAN_ANOMALY   = 73.6506

EPHEMERIS_TYPE = 0
CLASSIFICATION_TYPE = U
NORAD_CAT_ID   = 877
ELEMENT_SET_NO = 999
REV_AT_EPOCH   = 26988
BSTAR          = .77777863E-4
MEAN_MOTION_DOT = .277E-5
MEAN_MOTION_DDOT = 0

CCSDS_OMM_VERS = 2.0
CREATION_DATE  = 
ORIGINATOR     = 

OBJECT_NAME    = SL-8 R/B
OBJECT_ID      = 1967-045B
CENTER_NAME    = EARTH
REF_FRAME      = TEME
TIME_SYSTEM    = UTC
MEAN_ELEMENT_THEORY = SGP/SGP4

EPOCH          = 2026-03-31T00:39:39.134592
MEAN_MOTION    = 14.45639307
ECCENTRICITY   = .00649457
INCLINATION    = 74.0108
RA_OF_ASC_NODE = 308.2405
ARG_OF_PERICENTER = 309.7937
MEAN_ANOMALY   = 49.7512

EPHEMERIS_TYPE = 0
CLASSIFICATION_TYPE = U
NORAD_CAT_ID   = 2802
ELEMENT_SET_NO = 999
REV_AT_EPOCH   = 9210
BSTAR          = .1069825E-3
MEAN_MOTION_DOT = .359E-5
MEAN_MOTION_DDOT = 0

CCSDS_OMM_VERS = 2.0
CREATION_DATE  = 
ORIGINATOR     = 

OBJECT_NAME    = SL-8 R/B
OBJECT_ID      = 1968-040B
CENTER_NAME    = EARTH
REF_FRAME      = TEME
TIME_SYSTEM    = UTC
MEAN_ELEMENT_THEORY = SGP/SGP4

EPOCH          = 2026-03-30T22:31:15.123936
MEAN_MOTION    = 15.03403721
ECCENTRICITY   = .002329
INCLINATION    = 74.0290
RA_OF_ASC_NODE = 270.2686
ARG_OF_PERICENTER = 85.5331
MEAN_ANOMALY   = 274.8518

EPHEMERIS_TYPE = 0
CLASSIFICATION_TYPE = U
NORAD_CAT_ID   = 3230
ELEMENT_SET_NO = 999
REV_AT_EPOCH   = 9320
BSTAR          = .32558E-3
MEAN_MOTION_DOT = .4414E-4
MEAN_MOTION_DDOT = 0

CCSDS_OMM_VERS = 2.0
CREATION_DATE  = 
ORIGINATOR     = 

OBJECT_NAME    = OAO 2
OBJECT_ID      = 1968-110A
CENTER_NAME    = EARTH
REF_FRAME      = TEME
TIME_SYSTEM    = UTC
MEAN_ELEMENT_THEORY = SGP/SGP4

EPOCH          = 2026-03-31T05:42:53.857440
MEAN_MOTION    = 14.47320169
ECCENTRICITY   = .00055235
INCLINATION    = 34.9923
RA_OF_ASC_NODE = 144.9092
ARG_OF_PERICENTER = 4.4736
MEAN_ANOMALY   = 355.6004

EPHEMERIS_TYPE = 0
CLASSIFICATION_TYPE = U
NORAD_CAT_ID   = 3597
ELEMENT_SET_NO = 999
REV_AT_EPOCH   = 2222
BSTAR          = .93151979E-4
MEAN_MOTION_DOT = .327E-5
MEAN_MOTION_DDOT = 0

CCSDS_OMM_VERS = 2.0
CREATION_DATE  = 
ORIGINATOR     = 

OBJECT_NAME    = ISIS 1
OBJECT_ID      = 1969-009A
CENTER_NAME    = EARTH
REF_FRAME      = TEME
TIME_SYSTEM    = UTC
MEAN_ELEMENT_THEORY = SGP/SGP4

EPOCH          = 2026-03-31T05:24:37.515744
MEAN_MOTION    = 11.30419730
ECCENTRICITY   = .17078274
INCLINATION    = 88.4501
RA_OF_ASC_NODE = 152.9579
ARG_OF_PERICENTER = 45.7199
MEAN_ANOMALY   = 327.1837

EPHEMERIS_TYPE = 0
CLASSIFICATION_TYPE = U
NORAD_CAT_ID   = 3669
ELEMENT_SET_NO = 999
REV_AT_EPOCH   = 35096
BSTAR          = .10976465E-3
MEAN_MOTION_DOT = .172E-5
MEAN_MOTION_DDOT = 0

CCSDS_OMM_VERS = 2.0
CREATION_DATE  = 
ORIGINATOR     = 

OBJECT_NAME    = SERT 2
OBJECT_ID      = 1970-009A
CENTER_NAME    = EARTH
REF_FRAME      = TEME
TIME_SYSTEM    = UTC
MEAN_ELEMENT_THEORY = SGP/SGP4

EPOCH          = 2026-03-31T07:05:11.261472
MEAN_MOTION    = 13.58731852
ECCENTRICITY   = .00056861
INCLINATION    = 99.2788
RA_OF_ASC_NODE = 32.2098
ARG_OF_PERICENTER = 106.1629
MEAN_ANOMALY   = 58.8508

EPHEMERIS_TYPE = 0
CLASSIFICATION_TYPE = U
NORAD_CAT_ID   = 4327
ELEMENT_SET_NO = 999
REV_AT_EPOCH   = 78282
BSTAR          = .6000248E-4
MEAN_MOTION_DOT = .3E-7
MEAN_MOTION_DDOT = 0

CCSDS_OMM_VERS = 2.0
CREATION_DATE  = 
ORIGINATOR     = 

OBJECT_NAME    = SL-3 R/B
OBJECT_ID      = 1971-028B
CENTER_NAME    = EARTH
REF_FRAME      = TEME
TIME_SYSTEM    = UTC
MEAN_ELEMENT_THEORY = SGP/SGP4

EPOCH          = 2026-03-31T05:51:18.767808
MEAN_MOTION    = 15.63082789
ECCENTRICITY   = .00148236
INCLINATION    = 81.2376
RA_OF_ASC_NODE = 25.3720
ARG_OF_PERICENTER = 196.5768
MEAN_ANOMALY   = 163.5004

EPHEMERIS_TYPE = 0
CLASSIFICATION_TYPE = U
NORAD_CAT_ID   = 5118
ELEMENT_SET_NO = 999
REV_AT_EPOCH   = 99203
BSTAR          = .53638668E-3
MEAN_MOTION_DOT = .49275E-3
MEAN_MOTION_DDOT = 0

CCSDS_OMM_VERS = 2.0
CREATION_DATE  = 
ORIGINATOR     = 

OBJECT_NAME    = ASTEX 1
OBJECT_ID      = 1971-089A
CENTER_NAME    = EARTH
REF_FRAME      = TEME
TIME_SYSTEM    = UTC
MEAN_ELEMENT_THEORY = SGP/SGP4

EPOCH          = 2026-03-31T04:53:37.859424
MEAN_MOTION    = 14.50791794
ECCENTRICITY   = .00161148
INCLINATION    = 92.7088
RA_OF_ASC_NODE = 158.7129
ARG_OF_PERICENTER = 20.4957
MEAN_ANOMALY   = 339.6892

EPHEMERIS_TYPE = 0
CLASSIFICATION_TYPE = U
NORAD_CAT_ID   = 5560
ELEMENT_SET_NO = 999
REV_AT_EPOCH   = 86542
BSTAR          = .15456867E-3
MEAN_MOTION_DOT = .608E-5
MEAN_MOTION_DDOT = 0

CCSDS_OMM_VERS = 2.0
CREATION_DATE  = 
ORIGINATOR     = 

OBJECT_NAME    = SL-8 R/B
OBJECT_ID      = 1971-119B
CENTER_NAME    = EARTH
REF_FRAME      = TEME
TIME_SYSTEM    = UTC
MEAN_ELEMENT_THEORY = SGP/SGP4

EPOCH          = 2026-03-31T05:21:06.842304
MEAN_MOTION    = 14.38267814
ECCENTRICITY   = .05462971
INCLINATION    = 73.8855
RA_OF_ASC_NODE = 135.4581
ARG_OF_PERICENTER = 97.5277
MEAN_ANOMALY   = 268.8256

EPHEMERIS_TYPE = 0
CLASSIFICATION_TYPE = U
NORAD_CAT_ID   = 5730
ELEMENT_SET_NO = 999
REV_AT_EPOCH   = 65858
BSTAR          = .45173169E-3
MEAN_MOTION_DOT = .8634E-4
MEAN_MOTION_DDOT = 0

CCSDS_OMM_VERS = 2.0
CREATION_DATE  = 
ORIGINATOR     = 

OBJECT_NAME    = OAO 3 (COPERNICUS)
OBJECT_ID      = 1972-065A
CENTER_NAME    = EARTH
REF_FRAME      = TEME
TIME_SYSTEM    = UTC
MEAN_ELEMENT_THEORY = SGP/SGP4

EPOCH          = 2026-03-31T06:33:41.860224
MEAN_MOTION    = 14.60015460
ECCENTRICITY   = .00069584
INCLINATION    = 35.0047
RA_OF_ASC_NODE = 174.3409
ARG_OF_PERICENTER = 332.7140
MEAN_ANOMALY   = 65.5390

EPHEMERIS_TYPE = 0
CLASSIFICATION_TYPE = U
NORAD_CAT_ID   = 6153
ELEMENT_SET_NO = 999
REV_AT_EPOCH   = 84935
BSTAR          = .95968566E-4
MEAN_MOTION_DOT = .447E-5
MEAN_MOTION_DDOT = 0

